     2              NAVIGATION DATA                         RINEX VERSION / TYPE
CCRINEXN V1.6.0 UX  CDDIS               11-MAR-19 11:09     PGM / RUN BY / DATE 
IGS BROADCAST EPHEMERIS FILE                                COMMENT             
    0.1024D-07  0.0000D+00 -0.5960D-07  0.0000D+00          ION ALPHA           
    0.9011D+05  0.0000D+00 -0.1966D+06  0.0000D+00          ION BETA            
   -0.931322574615D-09-0.710542735760D-14   319488     2044 DELTA-UTC: A0,A1,T,W
    18                                                      LEAP SECONDS        
                                                            END OF HEADER       
20 19  3 11  7 59 44.0 0.522983260453D-03 0.341060513165D-12 0.000000000000D+00
    0.600000000000D+01-0.315000000000D+02 0.566309303341D-08-0.189860442502D+01
   -0.152550637722D-05 0.436924269889D-02 0.514090061188D-05 0.515367217445D+04
    0.115184000000D+06-0.117346644402D-06-0.676759807042D+00 0.242143869400D-07
    0.930227607691D+00 0.266343750000D+03 0.230554786252D+01-0.869036198846D-08
   -0.147863301957D-09 0.100000000000D+01 0.204400000000D+04 0.000000000000D+00
    0.200000000000D+01 0.000000000000D+00-0.838190317154D-08 0.600000000000D+01
    0.000000000000D+00 0.400000000000D+01 0.000000000000D+00 0.000000000000D+00
21 19  3 11  7 59 44.0-0.234735198319D-03 0.738964445190D-11 0.000000000000D+00
    0.600000000000D+01 0.433437500000D+02 0.487341722533D-08 0.293370130498D+01
    0.205263495445D-05 0.247678474989D-01 0.746175646782D-05 0.515378104019D+04
    0.115184000000D+06 0.409781932831D-06-0.166267109171D+01 0.558793544769D-08
    0.947177659740D+00 0.222906250000D+03-0.146572397370D+01-0.792175836040D-08
    0.400016658686D-09 0.100000000000D+01 0.204400000000D+04 0.000000000000D+00
    0.200000000000D+01 0.000000000000D+00-0.102445483208D-07 0.600000000000D+01
    0.113610000000D+06 0.000000000000D+00 0.000000000000D+00 0.000000000000D+00
23 19  3 11  7 59 44.0-0.194444321096D-03 0.136424205266D-11 0.000000000000D+00
    0.450000000000D+02-0.131250000000D+01 0.484841624171D-08-0.806918226697D+00
   -0.875443220139D-07 0.129062066553D-01 0.110641121864D-04 0.515362774086D+04
    0.115184000000D+06 0.968575477600D-07 0.470120292066D+00 0.240281224251D-06
    0.943715593885D+00 0.155250000000D+03-0.229013822518D+01-0.827070165078D-08
   -0.380015829185D-09 0.100000000000D+01 0.204400000000D+04 0.000000000000D+00
    0.200000000000D+01 0.000000000000D+00-0.200234353542D-07 0.450000000000D+02
    0.108018000000D+06 0.400000000000D+01 0.000000000000D+00 0.000000000000D+00
24 19  3 11  7 59 44.0-0.632251612842D-04-0.454747350886D-12 0.000000000000D+00
    0.190000000000D+02 0.756250000000D+02 0.496199259459D-08-0.128542193174D+01
    0.395812094212D-05 0.821964140050D-02 0.671483576298D-05 0.515372862816D+04
    0.115184000000D+06 0.195577740669D-06 0.148633001017D+01-0.800937414169D-07
    0.938934683975D+00 0.239375000000D+03 0.602276646737D+00-0.836463431852D-08
    0.163935406916D-09 0.100000000000D+01 0.204400000000D+04 0.000000000000D+00
    0.200000000000D+01 0.000000000000D+00 0.279396772385D-08 0.190000000000D+02
    0.112680000000D+06 0.000000000000D+00 0.000000000000D+00 0.000000000000D+00
 1 19  3 11  8  0  0.0-0.178545247763D-03-0.738964445190D-11 0.000000000000D+00
    0.830000000000D+02 0.255312500000D+02 0.440446917811D-08-0.156386359020D+01
    0.126101076603D-05 0.848847581074D-02 0.786222517490D-05 0.515365409470D+04
    0.115200000000D+06 0.167638063431D-06-0.160048720157D+01-0.707805156708D-07
    0.974346302829D+00 0.232781250000D+03 0.683477256223D+00-0.792997317236D-08
    0.551808699333D-09 0.100000000000D+01 0.204400000000D+04 0.000000000000D+00
    0.200000000000D+01 0.000000000000D+00 0.558793544769D-08 0.830000000000D+02
    0.108018000000D+06 0.400000000000D+01 0.000000000000D+00 0.000000000000D+00
 2 19  3 11  8  0  0.0-0.160571653396D-03-0.966338120634D-11 0.000000000000D+00
    0.760000000000D+02 0.369062500000D+02 0.488091744799D-08-0.126608494159D+01
    0.237300992012D-05 0.189049334731D-01 0.767223536968D-05 0.515366735077D+04
    0.115200000000D+06 0.745058059692D-08-0.166764013289D+01 0.448897480965D-06
    0.953467552093D+00 0.231000000000D+03-0.176204891623D+01-0.830427460130D-08
    0.435018132627D-09 0.100000000000D+01 0.204400000000D+04 0.000000000000D+00
    0.200000000000D+01 0.000000000000D+00-0.204890966415D-07 0.760000000000D+02
    0.108030000000D+06 0.000000000000D+00 0.000000000000D+00 0.000000000000D+00
 3 19  3 11  8  0  0.0 0.186047516763D-03 0.113686837722D-11 0.000000000000D+00
    0.380000000000D+02-0.337500000000D+02 0.491091884520D-08-0.252940332954D+01
   -0.168569386005D-05 0.191472016741D-02 0.577233731747D-05 0.515355821991D+04
    0.115200000000D+06 0.260770320892D-07-0.557631952089D+00-0.689178705216D-07
    0.962641471870D+00 0.266906250000D+03 0.598171625461D+00-0.827748764773D-08
   -0.187150652719D-09 0.100000000000D+01 0.204400000000D+04 0.000000000000D+00
    0.200000000000D+01 0.000000000000D+00 0.232830643654D-08 0.380000000000D+02
    0.108018000000D+06 0.400000000000D+01 0.000000000000D+00 0.000000000000D+00
 4 19  3 11  8  0  0.0 0.131228473038D-03 0.750333128963D-11 0.000000000000D+00
    0.620000000000D+02-0.303125000000D+01 0.434375236329D-08-0.211871510849D+01
   -0.206753611565D-06 0.324056483805D-03 0.113919377327D-04 0.515381047058D+04
    0.115200000000D+06-0.745058059692D-08 0.519092291077D+00-0.316649675369D-07
    0.960254418199D+00 0.158125000000D+03-0.175677753816D+01-0.789140013706D-08
   -0.303226916332D-09 0.100000000000D+01 0.204400000000D+04 0.000000000000D+00
    0.400000000000D+01 0.630000000000D+02-0.884756445885D-08 0.830000000000D+03
    0.111996000000D+06 0.400000000000D+01 0.000000000000D+00 0.000000000000D+00
 7 19  3 11  8  0  0.0 0.171498395503D-04-0.727595761418D-11 0.000000000000D+00
    0.390000000000D+02 0.843125000000D+02 0.455233228891D-08-0.217714769778D+01
    0.420585274696D-05 0.123054630822D-01 0.728853046894D-05 0.515360558128D+04
    0.115200000000D+06 0.521540641785D-07 0.155100884419D+01-0.152736902237D-06
    0.955770084209D+00 0.235906250000D+03-0.247587887722D+01-0.802997757177D-08
    0.353943319098D-09 0.100000000000D+01 0.204400000000D+04 0.000000000000D+00
    0.200000000000D+01 0.000000000000D+00-0.111758708954D-07 0.390000000000D+02
    0.108030000000D+06 0.000000000000D+00 0.000000000000D+00 0.000000000000D+00
 8 19  3 11  8  0  0.0-0.135724898428D-03-0.136424205266D-11 0.000000000000D+00
    0.920000000000D+02-0.583125000000D+02 0.410838541646D-08 0.892224090063D+00
   -0.297836959362D-05 0.435366807506D-02 0.103339552879D-04 0.515371072388D+04
    0.115200000000D+06 0.115483999252D-06-0.266685036841D+01 0.260770320892D-07
    0.970405445831D+00 0.183843750000D+03-0.315328159141D+00-0.788890003292D-08
   -0.567880797372D-10 0.100000000000D+01 0.204400000000D+04 0.000000000000D+00
    0.200000000000D+01 0.000000000000D+00 0.512227416039D-08 0.920000000000D+02
    0.108018000000D+06 0.400000000000D+01 0.000000000000D+00 0.000000000000D+00
 9 19  3 11  8  0  0.0 0.446940772235D-03-0.568434188608D-11 0.000000000000D+00
    0.360000000000D+02-0.668750000000D+01 0.453590322429D-08 0.937218309487D+00
   -0.467523932457D-06 0.141042470932D-02 0.112690031529D-04 0.515372469521D+04
    0.115200000000D+06-0.186264514923D-07 0.474488836090D+00-0.707805156708D-07
    0.952901290152D+00 0.156968750000D+03 0.173883552671D+01-0.800319050787D-08
   -0.342514267094D-09 0.100000000000D+01 0.204400000000D+04 0.000000000000D+00
    0.200000000000D+01 0.000000000000D+00 0.139698386192D-08 0.360000000000D+02
    0.108708000000D+06 0.400000000000D+01 0.000000000000D+00 0.000000000000D+00
10 19  3 11  8  0  0.0 0.997870229185D-04-0.841282599140D-11 0.000000000000D+00
    0.950000000000D+02-0.393750000000D+02 0.485984528921D-08 0.265536711394D+01
   -0.203587114811D-05 0.440406682901D-02 0.596046447754D-05 0.515366009140D+04
    0.115200000000D+06-0.782310962677D-07-0.560904268691D+00-0.577419996262D-07
    0.962675895795D+00 0.267625000000D+03-0.272650718752D+01-0.819498421113D-08
   -0.217509060125D-09 0.100000000000D+01 0.204400000000D+04 0.000000000000D+00
    0.200000000000D+01 0.000000000000D+00 0.186264514923D-08 0.950000000000D+02
    0.000000000000D+00 0.400000000000D+01 0.000000000000D+00 0.000000000000D+00
11 19  3 11  8  0  0.0-0.647003296763D-03 0.648014975013D-11 0.000000000000D+00
    0.270000000000D+02 0.167812500000D+02 0.550165773756D-08-0.226752911592D+01
    0.108033418655D-05 0.165383098647D-01 0.991858541966D-05 0.515369318581D+04
    0.115200000000D+06 0.167638063431D-06-0.204644624878D+01 0.253319740295D-06
    0.908521900087D+00 0.154156250000D+03 0.186878631733D+01-0.829534553444D-08
    0.420017495415D-09 0.100000000000D+01 0.204400000000D+04 0.000000000000D+00
    0.200000000000D+01 0.000000000000D+00-0.121071934700D-07 0.270000000000D+02
    0.108018000000D+06 0.400000000000D+01 0.000000000000D+00 0.000000000000D+00
12 19  3 11  8  0  0.0 0.261131208390D-03-0.329691829393D-11 0.000000000000D+00
    0.880000000000D+02-0.402187500000D+02 0.406302635980D-08-0.291282700298D+01
   -0.205263495445D-05 0.754716678057D-02 0.477209687233D-05 0.515368561172D+04
    0.115200000000D+06 0.689178705216D-07 0.264985676090D+01-0.800937414169D-07
    0.983728120819D+00 0.298718750000D+03 0.104392747481D+01-0.793354448803D-08
   -0.172150030342D-09 0.100000000000D+01 0.204400000000D+04 0.000000000000D+00
    0.200000000000D+01 0.000000000000D+00-0.125728547573D-07 0.880000000000D+02
    0.108030000000D+06 0.000000000000D+00 0.000000000000D+00 0.000000000000D+00
